{"fetched_at":"2026-07-22T07:09:45.765Z","source":"https://celestrak.org/NORAD/elements/gp.php?NAME=HAWK&FORMAT=JSON","constellation":"hawkeye-360","records":[{"OBJECT_NAME":"HAWK-A","OBJECT_ID":"2018-099H","EPOCH":"2026-07-21T09:45:12.117600","CLASSIFICATION_TYPE":"U","MEAN_MOTION":15.25016424,"ECCENTRICITY":0.00353367,"INCLINATION":97.3892,"RA_OF_ASC_NODE":254.2005,"ARG_OF_PERICENTER":162.3376,"MEAN_ANOMALY":197.9099,"EPHEMERIS_TYPE":0,"NORAD_CAT_ID":43765,"ELEMENT_SET_NO":999,"REV_AT_EPOCH":41831,"BSTAR":0.00022034196,"MEAN_MOTION_DOT":0.00005525,"MEAN_MOTION_DDOT":0},{"OBJECT_NAME":"HAWK-B","OBJECT_ID":"2018-099AN","EPOCH":"2026-07-21T14:24:42.621984","CLASSIFICATION_TYPE":"U","MEAN_MOTION":15.23164138,"ECCENTRICITY":0.00320289,"INCLINATION":97.3942,"RA_OF_ASC_NODE":253.7343,"ARG_OF_PERICENTER":179.4965,"MEAN_ANOMALY":180.631,"EPHEMERIS_TYPE":0,"NORAD_CAT_ID":43794,"ELEMENT_SET_NO":999,"REV_AT_EPOCH":41827,"BSTAR":0.00023538137,"MEAN_MOTION_DOT":0.00005568,"MEAN_MOTION_DDOT":0},{"OBJECT_NAME":"HAWK-C","OBJECT_ID":"2018-099AT","EPOCH":"2026-07-21T13:35:47.910336","CLASSIFICATION_TYPE":"U","MEAN_MOTION":15.28558436,"ECCENTRICITY":0.00409461,"INCLINATION":97.3868,"RA_OF_ASC_NODE":255.4422,"ARG_OF_PERICENTER":161.4729,"MEAN_ANOMALY":198.8013,"EPHEMERIS_TYPE":0,"NORAD_CAT_ID":43799,"ELEMENT_SET_NO":999,"REV_AT_EPOCH":41916,"BSTAR":0.00028409985,"MEAN_MOTION_DOT":0.00008017,"MEAN_MOTION_DDOT":0},{"OBJECT_NAME":"HAWK-2C","OBJECT_ID":"2021-006CT","EPOCH":"2026-07-21T13:48:06.492960","CLASSIFICATION_TYPE":"U","MEAN_MOTION":15.35041093,"ECCENTRICITY":0.00086405,"INCLINATION":97.2261,"RA_OF_ASC_NODE":246.2039,"ARG_OF_PERICENTER":82.8925,"MEAN_ANOMALY":277.3301,"EPHEMERIS_TYPE":0,"NORAD_CAT_ID":47502,"ELEMENT_SET_NO":999,"REV_AT_EPOCH":30477,"BSTAR":0.00016984799,"MEAN_MOTION_DOT":0.00005702,"MEAN_MOTION_DDOT":0},{"OBJECT_NAME":"HAWK-2A","OBJECT_ID":"2021-006CW","EPOCH":"2026-07-21T13:51:10.938816","CLASSIFICATION_TYPE":"U","MEAN_MOTION":15.35063913,"ECCENTRICITY":0.00082092,"INCLINATION":97.2302,"RA_OF_ASC_NODE":246.9037,"ARG_OF_PERICENTER":86.4993,"MEAN_ANOMALY":273.719,"EPHEMERIS_TYPE":0,"NORAD_CAT_ID":47505,"ELEMENT_SET_NO":999,"REV_AT_EPOCH":30477,"BSTAR":0.00018127056,"MEAN_MOTION_DOT":0.00006094,"MEAN_MOTION_DDOT":0},{"OBJECT_NAME":"HAWK-2B","OBJECT_ID":"2021-006CZ","EPOCH":"2026-07-21T13:41:05.082144","CLASSIFICATION_TYPE":"U","MEAN_MOTION":15.35195414,"ECCENTRICITY":0.00087333,"INCLINATION":97.2176,"RA_OF_ASC_NODE":245.175,"ARG_OF_PERICENTER":84.7655,"MEAN_ANOMALY":275.4585,"EPHEMERIS_TYPE":0,"NORAD_CAT_ID":47508,"ELEMENT_SET_NO":999,"REV_AT_EPOCH":30477,"BSTAR":0.00019107505,"MEAN_MOTION_DOT":0.00006457,"MEAN_MOTION_DDOT":0},{"OBJECT_NAME":"HAWK-3B","OBJECT_ID":"2021-059BE","EPOCH":"2026-07-21T12:42:02.594016","CLASSIFICATION_TYPE":"U","MEAN_MOTION":15.72272829,"ECCENTRICITY":0.00049472,"INCLINATION":97.6636,"RA_OF_ASC_NODE":42.558,"ARG_OF_PERICENTER":176.4381,"MEAN_ANOMALY":183.6918,"EPHEMERIS_TYPE":0,"NORAD_CAT_ID":48931,"ELEMENT_SET_NO":999,"REV_AT_EPOCH":28324,"BSTAR":0.00034396991,"MEAN_MOTION_DOT":0.00045439,"MEAN_MOTION_DDOT":0},{"OBJECT_NAME":"HAWK-3C","OBJECT_ID":"2021-059BX","EPOCH":"2026-07-21T12:41:35.141280","CLASSIFICATION_TYPE":"U","MEAN_MOTION":15.7227085,"ECCENTRICITY":0.00053235,"INCLINATION":97.6749,"RA_OF_ASC_NODE":48.3011,"ARG_OF_PERICENTER":176.31,"MEAN_ANOMALY":183.8203,"EPHEMERIS_TYPE":0,"NORAD_CAT_ID":48948,"ELEMENT_SET_NO":999,"REV_AT_EPOCH":28324,"BSTAR":0.00032868474,"MEAN_MOTION_DOT":0.00043405,"MEAN_MOTION_DDOT":0},{"OBJECT_NAME":"HAWK-3A","OBJECT_ID":"2021-059CG","EPOCH":"2026-07-21T01:59:52.742976","CLASSIFICATION_TYPE":"U","MEAN_MOTION":15.72234327,"ECCENTRICITY":0.00050987,"INCLINATION":97.6699,"RA_OF_ASC_NODE":44.9888,"ARG_OF_PERICENTER":180.1984,"MEAN_ANOMALY":179.9277,"EPHEMERIS_TYPE":0,"NORAD_CAT_ID":48957,"ELEMENT_SET_NO":999,"REV_AT_EPOCH":28317,"BSTAR":0.00028163758,"MEAN_MOTION_DOT":0.00037085,"MEAN_MOTION_DDOT":0},{"OBJECT_NAME":"HAWK-5C","OBJECT_ID":"2022-057Y","EPOCH":"2026-07-21T09:50:22.630560","CLASSIFICATION_TYPE":"U","MEAN_MOTION":15.52470066,"ECCENTRICITY":0.00023749,"INCLINATION":97.663,"RA_OF_ASC_NODE":4.3201,"ARG_OF_PERICENTER":315.1982,"MEAN_ANOMALY":44.9078,"EPHEMERIS_TYPE":0,"NORAD_CAT_ID":52754,"ELEMENT_SET_NO":999,"REV_AT_EPOCH":23165,"BSTAR":0.00023639236,"MEAN_MOTION_DOT":0.00014365,"MEAN_MOTION_DDOT":0},{"OBJECT_NAME":"HAWK-5B","OBJECT_ID":"2022-057AA","EPOCH":"2026-07-21T08:17:19.059936","CLASSIFICATION_TYPE":"U","MEAN_MOTION":15.52463503,"ECCENTRICITY":0.00030448,"INCLINATION":97.6641,"RA_OF_ASC_NODE":2.6058,"ARG_OF_PERICENTER":301.4147,"MEAN_ANOMALY":58.6807,"EPHEMERIS_TYPE":0,"NORAD_CAT_ID":52756,"ELEMENT_SET_NO":999,"REV_AT_EPOCH":23164,"BSTAR":0.0002348874,"MEAN_MOTION_DOT":0.0001427,"MEAN_MOTION_DDOT":0},{"OBJECT_NAME":"HAWK-5A","OBJECT_ID":"2022-057AB","EPOCH":"2026-07-20T23:00:07.252128","CLASSIFICATION_TYPE":"U","MEAN_MOTION":15.52455151,"ECCENTRICITY":0.00029429,"INCLINATION":97.6637,"RA_OF_ASC_NODE":3.0231,"ARG_OF_PERICENTER":309.83,"MEAN_ANOMALY":50.2692,"EPHEMERIS_TYPE":0,"NORAD_CAT_ID":52757,"ELEMENT_SET_NO":999,"REV_AT_EPOCH":23158,"BSTAR":0.00022046684,"MEAN_MOTION_DOT":0.00013382,"MEAN_MOTION_DDOT":0},{"OBJECT_NAME":"HAWK-6B","OBJECT_ID":"2023-011A","EPOCH":"2026-07-21T05:08:06.451584","CLASSIFICATION_TYPE":"U","MEAN_MOTION":15.23188223,"ECCENTRICITY":0.00045838,"INCLINATION":40.4981,"RA_OF_ASC_NODE":153.5607,"ARG_OF_PERICENTER":270.8827,"MEAN_ANOMALY":89.1457,"EPHEMERIS_TYPE":0,"NORAD_CAT_ID":55324,"ELEMENT_SET_NO":999,"REV_AT_EPOCH":19303,"BSTAR":0.00014358561,"MEAN_MOTION_DOT":0.00003272,"MEAN_MOTION_DDOT":0},{"OBJECT_NAME":"HAWK-6C","OBJECT_ID":"2023-011C","EPOCH":"2026-07-21T12:59:15.850752","CLASSIFICATION_TYPE":"U","MEAN_MOTION":15.23191156,"ECCENTRICITY":0.00050816,"INCLINATION":40.497,"RA_OF_ASC_NODE":148.4867,"ARG_OF_PERICENTER":267.399,"MEAN_ANOMALY":92.6238,"EPHEMERIS_TYPE":0,"NORAD_CAT_ID":55326,"ELEMENT_SET_NO":999,"REV_AT_EPOCH":19309,"BSTAR":0.00015714503,"MEAN_MOTION_DOT":0.000036,"MEAN_MOTION_DDOT":0},{"OBJECT_NAME":"HAWK-6A","OBJECT_ID":"2023-011D","EPOCH":"2026-07-21T05:07:15.007296","CLASSIFICATION_TYPE":"U","MEAN_MOTION":15.23188189,"ECCENTRICITY":0.0004771,"INCLINATION":40.4979,"RA_OF_ASC_NODE":152.0272,"ARG_OF_PERICENTER":262.716,"MEAN_ANOMALY":97.3107,"EPHEMERIS_TYPE":0,"NORAD_CAT_ID":55327,"ELEMENT_SET_NO":999,"REV_AT_EPOCH":19304,"BSTAR":0.00014221103,"MEAN_MOTION_DOT":0.00003239,"MEAN_MOTION_DDOT":0},{"OBJECT_NAME":"HAWK-7A","OBJECT_ID":"2023-054P","EPOCH":"2026-07-21T15:11:11.571648","CLASSIFICATION_TYPE":"U","MEAN_MOTION":15.27677004,"ECCENTRICITY":0.00009804,"INCLINATION":97.2651,"RA_OF_ASC_NODE":89.094,"ARG_OF_PERICENTER":285.0813,"MEAN_ANOMALY":75.0318,"EPHEMERIS_TYPE":0,"NORAD_CAT_ID":56191,"ELEMENT_SET_NO":999,"REV_AT_EPOCH":18228,"BSTAR":0.00017089125,"MEAN_MOTION_DOT":0.0000455,"MEAN_MOTION_DDOT":0}]}
